[{"OBJECT_NAME":"TRANSPORTER-13 OBJECT BC","OBJECT_ID":"2025-052BC","EPOCH":"2026-03-09T15:51:01.832832","MEAN_MOTION":14.94345554,"ECCENTRICITY":0.00011495,"INCLINATION":97.6967,"RA_OF_ASC_NODE":322.0668,"ARG_OF_PERICENTER":20.7823,"MEAN_ANOMALY":339.3444,"EPHEMERIS_TYPE":0,"CLASSIFICATION_TYPE":"U","NORAD_CAT_ID":63260,"ELEMENT_SET_NO":999,"REV_AT_EPOCH":5376,"BSTAR":0.00025427428,"MEAN_MOTION_DOT":2.678e-5,"MEAN_MOTION_DDOT":0},{"OBJECT_NAME":"SPOT 2","OBJECT_ID":"1990-005A","EPOCH":"2026-03-09T21:55:30.289728","MEAN_MOTION":14.73729036,"ECCENTRICITY":0.01297919,"INCLINATION":98.6985,"RA_OF_ASC_NODE":218.7434,"ARG_OF_PERICENTER":40.4901,"MEAN_ANOMALY":320.5875,"EPHEMERIS_TYPE":0,"CLASSIFICATION_TYPE":"U","NORAD_CAT_ID":20436,"ELEMENT_SET_NO":999,"REV_AT_EPOCH":90070,"BSTAR":0.00013767957,"MEAN_MOTION_DOT":9.62e-6,"MEAN_MOTION_DDOT":0}]
